[{"OBJECT_NAME":"STARLINK-6202","OBJECT_ID":"2023-083W","EPOCH":"2026-03-09T02:08:13.087968","MEAN_MOTION":15.02535086,"ECCENTRICITY":6.907e-5,"INCLINATION":42.9997,"RA_OF_ASC_NODE":84.7262,"ARG_OF_PERICENTER":287.0195,"MEAN_ANOMALY":73.0572,"EPHEMERIS_TYPE":0,"CLASSIFICATION_TYPE":"U","NORAD_CAT_ID":56896,"ELEMENT_SET_NO":999,"REV_AT_EPOCH":15169,"BSTAR":2.9712e-5,"MEAN_MOTION_DOT":1.98e-6,"MEAN_MOTION_DDOT":0},{"OBJECT_NAME":"PEGASUS R\/B","OBJECT_ID":"1998-071B","EPOCH":"2026-03-09T18:27:50.570784","MEAN_MOTION":15.03047703,"ECCENTRICITY":0.0004531,"INCLINATION":69.9123,"RA_OF_ASC_NODE":198.9358,"ARG_OF_PERICENTER":7.5622,"MEAN_ANOMALY":352.5606,"EPHEMERIS_TYPE":0,"CLASSIFICATION_TYPE":"U","NORAD_CAT_ID":25561,"ELEMENT_SET_NO":999,"REV_AT_EPOCH":48091,"BSTAR":0.00030278547,"MEAN_MOTION_DOT":3.992e-5,"MEAN_MOTION_DDOT":0}]
